[
    {
        "Altitude(m)": 715836.4335393239,
        "Argument of Periapsis(deg)": 0.0,
        "Eccentricity": 0.0,
        "Inclination(deg)": 45.0,
        "Latitude(deg)": -40.20053767281638,
        "Longitude(deg)": -117.77160159516811,
        "Mean Anomaly(deg)": 245.45450000000002,
        "RAAN(deg)": 105.0,
        "Satellite Name": "Constellation 1 477",
        "Satellite Number": 477,
        "Semi-Major Axis(m)": 7083131.272910544,
        "Time(s)": 0
    },
    {
        "Altitude(m)": 715846.0482950367,
        "Argument of Periapsis(deg)": 5.994800624540561e-05,
        "Eccentricity": 0.0,
        "Inclination(deg)": 45.0,
        "Latitude(deg)": -40.223772983280426,
        "Longitude(deg)": -117.70261220122197,
        "Mean Anomaly(deg)": 245.51520114024987,
        "RAAN(deg)": 104.99994341083443,
        "Satellite Name": "Constellation 1 477",
        "Satellite Number": 477,
        "Semi-Major Axis(m)": 7083131.272910544,
        "Time(s)": 1
    },
    {
        "Altitude(m)": 715855.6441315346,
        "Argument of Periapsis(deg)": 0.00011989601249081122,
        "Eccentricity": 0.0,
        "Inclination(deg)": 45.0,
        "Latitude(deg)": -40.24696199021784,
        "Longitude(deg)": -117.63357302330552,
        "Mean Anomaly(deg)": 245.57590228049978,
        "RAAN(deg)": 104.99988682166887,
        "Satellite Name": "Constellation 1 477",
        "Satellite Number": 477,
        "Semi-Major Axis(m)": 7083131.272910544,
        "Time(s)": 2
    },
    {
        "Altitude(m)": 715865.2210137612,
        "Argument of Periapsis(deg)": 0.00017984401873621686,
        "Eccentricity": 0.0,
        "Inclination(deg)": 45.0,
        "Latitude(deg)": -40.27010462509013,
        "Longitude(deg)": -117.56448408591214,
        "Mean Anomaly(deg)": 245.6366034207497,
        "RAAN(deg)": 104.9998302325033,
        "Satellite Name": "Constellation 1 477",
        "Satellite Number": 477,
        "Semi-Major Axis(m)": 7083131.272910544,
        "Time(s)": 3
    },
    {
        "Altitude(m)": 715874.7789067375,
        "Argument of Periapsis(deg)": 0.00023979202498162244,
        "Eccentricity": 0.0,
        "Inclination(deg)": 45.0,
        "Latitude(deg)": -40.293200819372906,
        "Longitude(deg)": -117.49534541399724,
        "Mean Anomaly(deg)": 245.6973045609996,
        "RAAN(deg)": 104.99977364333773,
        "Satellite Name": "Constellation 1 477",
        "Satellite Number": 477,
        "Semi-Major Axis(m)": 7083131.272910544,
        "Time(s)": 4
    },
    {
        "Altitude(m)": 715884.3177755339,
        "Argument of Periapsis(deg)": 0.00029974003122702807,
        "Eccentricity": 0.0,
        "Inclination(deg)": 45.0,
        "Latitude(deg)": -40.316250504556706,
        "Longitude(deg)": -117.42615703297922,
        "Mean Anomaly(deg)": 245.75800570124954,
        "RAAN(deg)": 104.99971705417217,
        "Satellite Name": "Constellation 1 477",
        "Satellite Number": 477,
        "Semi-Major Axis(m)": 7083131.272910544,
        "Time(s)": 5
    },
    {
        "Altitude(m)": 715893.8375853166,
        "Argument of Periapsis(deg)": 0.00035968803747243373,
        "Eccentricity": 0.0,
        "Inclination(deg)": 45.0,
        "Latitude(deg)": -40.33925361214758,
        "Longitude(deg)": -117.35691896874108,
        "Mean Anomaly(deg)": 245.81870684149933,
        "RAAN(deg)": 104.99966046500658,
        "Satellite Name": "Constellation 1 477",
        "Satellite Number": 477,
        "Semi-Major Axis(m)": 7083131.272910544,
        "Time(s)": 6
    },
    {
        "Altitude(m)": 715903.3383012934,
        "Argument of Periapsis(deg)": 0.00041963604371783933,
        "Eccentricity": 0.0,
        "Inclination(deg)": 45.0,
        "Latitude(deg)": -40.36221007366776,
        "Longitude(deg)": -117.287631415728,
        "Mean Anomaly(deg)": 245.87940798174927,
        "RAAN(deg)": 104.99960387584103,
        "Satellite Name": "Constellation 1 477",
        "Satellite Number": 477,
        "Semi-Major Axis(m)": 7083131.272910544,
        "Time(s)": 7
    },
    {
        "Altitude(m)": 715912.8198887451,
        "Argument of Periapsis(deg)": 0.0004795840499632449,
        "Eccentricity": 0.0,
        "Inclination(deg)": 45.0,
        "Latitude(deg)": -40.385119820656776,
        "Longitude(deg)": -117.21829406456095,
        "Mean Anomaly(deg)": 245.94010912199917,
        "RAAN(deg)": 104.99954728667547,
        "Satellite Name": "Constellation 1 477",
        "Satellite Number": 477,
        "Semi-Major Axis(m)": 7083131.272910544,
        "Time(s)": 8
    },
    {
        "Altitude(m)": 715922.282313035,
        "Argument of Periapsis(deg)": 0.0005395320562086505,
        "Eccentricity": 0.0,
        "Inclination(deg)": 45.0,
        "Latitude(deg)": -40.40798278467113,
        "Longitude(deg)": -117.14890711062054,
        "Mean Anomaly(deg)": 246.00081026224905,
        "RAAN(deg)": 104.99949069750988,
        "Satellite Name": "Constellation 1 477",
        "Satellite Number": 477,
        "Semi-Major Axis(m)": 7083131.272910544,
        "Time(s)": 9
    },
    {
        "Altitude(m)": 715931.7255395761,
        "Argument of Periapsis(deg)": 0.0005994800624540561,
        "Eccentricity": 0.0,
        "Inclination(deg)": 45.0,
        "Latitude(deg)": -40.4307988972858,
        "Longitude(deg)": -117.07947058165932,
        "Mean Anomaly(deg)": 246.06151140249892,
        "RAAN(deg)": 104.99943410834432,
        "Satellite Name": "Constellation 1 477",
        "Satellite Number": 477,
        "Semi-Major Axis(m)": 7083131.272910544,
        "Time(s)": 10
    },
    {
        "Altitude(m)": 715941.1495338556,
        "Argument of Periapsis(deg)": 0.0006594280686994618,
        "Eccentricity": 0.0,
        "Inclination(deg)": 45.0,
        "Latitude(deg)": -40.453568090094585,
        "Longitude(deg)": -117.00998450590032,
        "Mean Anomaly(deg)": 246.12221254274885,
        "RAAN(deg)": 104.99937751917874,
        "Satellite Name": "Constellation 1 477",
        "Satellite Number": 477,
        "Semi-Major Axis(m)": 7083131.272910544,
        "Time(s)": 11
    },
    {
        "Altitude(m)": 715950.5542614303,
        "Argument of Periapsis(deg)": 0.0007193760749448675,
        "Eccentricity": 0.0,
        "Inclination(deg)": 45.0,
        "Latitude(deg)": -40.476290294710886,
        "Longitude(deg)": -116.94044891203842,
        "Mean Anomaly(deg)": 246.1829136829988,
        "RAAN(deg)": 104.99932093001317,
        "Satellite Name": "Constellation 1 477",
        "Satellite Number": 477,
        "Semi-Major Axis(m)": 7083131.272910544,
        "Time(s)": 12
    },
    {
        "Altitude(m)": 715959.9396879278,
        "Argument of Periapsis(deg)": 0.000779324081190273,
        "Eccentricity": 0.0,
        "Inclination(deg)": 45.0,
        "Latitude(deg)": -40.49896544276817,
        "Longitude(deg)": -116.87086382924163,
        "Mean Anomaly(deg)": 246.24361482324866,
        "RAAN(deg)": 104.99926434084762,
        "Satellite Name": "Constellation 1 477",
        "Satellite Number": 477,
        "Semi-Major Axis(m)": 7083131.272910544,
        "Time(s)": 13
    },
    {
        "Altitude(m)": 715969.305779037,
        "Argument of Periapsis(deg)": 0.0008392720874356787,
        "Eccentricity": 0.0,
        "Inclination(deg)": 45.0,
        "Latitude(deg)": -40.521593465920944,
        "Longitude(deg)": -116.80122928715191,
        "Mean Anomaly(deg)": 246.30431596349857,
        "RAAN(deg)": 104.99920775168204,
        "Satellite Name": "Constellation 1 477",
        "Satellite Number": 477,
        "Semi-Major Axis(m)": 7083131.272910544,
        "Time(s)": 14
    },
    {
        "Altitude(m)": 715978.6525005233,
        "Argument of Periapsis(deg)": 0.0008992200936810842,
        "Eccentricity": 0.0,
        "Inclination(deg)": 45.0,
        "Latitude(deg)": -40.54417429584504,
        "Longitude(deg)": -116.73154548398395,
        "Mean Anomaly(deg)": 246.3650171037485,
        "RAAN(deg)": 104.99915116251647,
        "Satellite Name": "Constellation 1 477",
        "Satellite Number": 477,
        "Semi-Major Axis(m)": 7083131.272910544,
        "Time(s)": 15
    },
    {
        "Altitude(m)": 715987.9798182152,
        "Argument of Periapsis(deg)": 0.0009591680999264898,
        "Eccentricity": 0.0,
        "Inclination(deg)": 45.0,
        "Latitude(deg)": -40.566707864239056,
        "Longitude(deg)": -116.66181211413726,
        "Mean Anomaly(deg)": 246.42571824399832,
        "RAAN(deg)": 104.99909457335089,
        "Satellite Name": "Constellation 1 477",
        "Satellite Number": 477,
        "Semi-Major Axis(m)": 7083131.272910544,
        "Time(s)": 16
    },
    {
        "Altitude(m)": 715997.2876980088,
        "Argument of Periapsis(deg)": 0.0010191161061718953,
        "Eccentricity": 0.0,
        "Inclination(deg)": 45.0,
        "Latitude(deg)": -40.58919410282393,
        "Longitude(deg)": -116.59202937678121,
        "Mean Anomaly(deg)": 246.48641938424825,
        "RAAN(deg)": 104.99903798418532,
        "Satellite Name": "Constellation 1 477",
        "Satellite Number": 477,
        "Semi-Major Axis(m)": 7083131.272910544,
        "Time(s)": 17
    },
    {
        "Altitude(m)": 716006.5761058731,
        "Argument of Periapsis(deg)": 0.001079064112417301,
        "Eccentricity": 0.0,
        "Inclination(deg)": 45.0,
        "Latitude(deg)": -40.61163294334454,
        "Longitude(deg)": -116.52219730346633,
        "Mean Anomaly(deg)": 246.54712052449813,
        "RAAN(deg)": 104.99898139501974,
        "Satellite Name": "Constellation 1 477",
        "Satellite Number": 477,
        "Semi-Major Axis(m)": 7083131.272910544,
        "Time(s)": 18
    }
]